{"type": "FeatureCollection", "features": [ {"type": "Feature", "properties": {"norad_id": 41774, "name": "SKYSAT-C3", "group": "resource", "lat": 37.10214549531329, "lon": -158.80839700970134, "alt_km": 430.54771275379153, "timestamp": "2025-12-07T22:37:42.740294+00:00", "meta": {"OBJECT_NAME": "SKYSAT-C3", "OBJECT_ID": "2016-058E", "EPOCH": "2025-12-07T01:47:41.064576", "MEAN_MOTION": 15.44107425, "ECCENTRICITY": 0.00015102, "INCLINATION": 96.9299, "RA_OF_ASC_NODE": 15.0858, "ARG_OF_PERICENTER": 103.5824, "MEAN_ANOMALY": 256.5594, "EPHEMERIS_TYPE": 0, "CLASSIFICATION_TYPE": "U", "NORAD_CAT_ID": 41774, "ELEMENT_SET_NO": 999, "REV_AT_EPOCH": 51638, "BSTAR": 0.00057873208, "MEAN_MOTION_DOT": 0.00026445, "MEAN_MOTION_DDOT": 0}, "tle": {"line1": "1 41774U 16058E   25341.07478084  .00026445  00000+0  57873-3 0  9999", "line2": "2 41774  96.9299  15.0858 0001510 103.5824 256.5594 15.44107425516388"}}, "geometry": {"type": "Point", "coordinates": [-158.80839700970134, 37.10214549531329]}}, {"type": "Feature", "properties": {"norad_id": 41785, "name": "ALSAT 1B", "group": "resource", "lat": 14.185136037860673, "lon": 175.92044164848267, "alt_km": 650.5376962359787, "timestamp": "2025-12-07T22:37:42.740310+00:00", "meta": {"OBJECT_NAME": "ALSAT 1B", "OBJECT_ID": "2016-059C", "EPOCH": "2025-12-07T07:11:51.235584", "MEAN_MOTION": 14.72067005, "ECCENTRICITY": 0.00105587, "INCLINATION": 97.7816, "RA_OF_ASC_NODE": 353.3244, "ARG_OF_PERICENTER": 119.1656, "MEAN_ANOMALY": 241.0609, "EPHEMERIS_TYPE": 0, "CLASSIFICATION_TYPE": "U", "NORAD_CAT_ID": 41785, "ELEMENT_SET_NO": 999, "REV_AT_EPOCH": 49234, "BSTAR": 0.00014824117, "MEAN_MOTION_DOT": 8.85e-06, "MEAN_MOTION_DDOT": 0}, "tle": {"line1": "1 41785U 16059C   25341.29989856  .00000885  00000+0  14824-3 0  9999", "line2": "2 41785  97.7816 353.3244 0010558 119.1656 241.0609 14.72067005492343"}}, "geometry": {"type": "Point", "coordinates": [175.92044164848267, 14.185136037860673]}}, {"type": "Feature", "properties": {"norad_id": 41787, "name": "PATHFINDER 1", "group": "resource", "lat": -33.92567036954173, "lon": -9.76126973754931, "alt_km": 689.4157714030989, "timestamp": "2025-12-07T22:37:42.740321+00:00", "meta": {"OBJECT_NAME": "PATHFINDER 1", "OBJECT_ID": "2016-059E", "EPOCH": "2025-12-07T06:25:06.500640", "MEAN_MOTION": 14.67306494, "ECCENTRICITY": 0.00300387, "INCLINATION": 97.8138, "RA_OF_ASC_NODE": 344.295, "ARG_OF_PERICENTER": 97.8185, "MEAN_ANOMALY": 262.6432, "EPHEMERIS_TYPE": 0, "CLASSIFICATION_TYPE": "U", "NORAD_CAT_ID": 41787, "ELEMENT_SET_NO": 999, "REV_AT_EPOCH": 49156, "BSTAR": 0.0002660337, "MEAN_MOTION_DOT": 1.465e-05, "MEAN_MOTION_DDOT": 0}, "tle": {"line1": "1 41787U 16059E   25341.26743635  .00001465  00000+0  26603-3 0  9994", "line2": "2 41787  97.8138 344.2950 0030038  97.8185 262.6432 14.67306494491568"}}, "geometry": {"type": "Point", "coordinates": [-9.76126973754931, -33.92567036954173]}}, {"type": "Feature", "properties": {"norad_id": 41790, "name": "SCATSAT 1", "group": "resource", "lat": 60.821252416277915, "lon": -126.58147047058708, "alt_km": 591.2355271934211, "timestamp": "2025-12-07T22:37:42.740331+00:00", "meta": {"OBJECT_NAME": "SCATSAT 1", "OBJECT_ID": "2016-059H", "EPOCH": "2025-12-07T02:36:41.031936", "MEAN_MOTION": 14.78907408, "ECCENTRICITY": 0.00560074, "INCLINATION": 98.1469, "RA_OF_ASC_NODE": 37.709, "ARG_OF_PERICENTER": 145.8081, "MEAN_ANOMALY": 214.6757, "EPHEMERIS_TYPE": 0, "CLASSIFICATION_TYPE": "U", "NORAD_CAT_ID": 41790, "ELEMENT_SET_NO": 999, "REV_AT_EPOCH": 7319, "BSTAR": 0.00040716964, "MEAN_MOTION_DOT": 3.025e-05, "MEAN_MOTION_DDOT": 0}, "tle": {"line1": "1 41790U 16059H   25341.10880824  .00003025  00000+0  40717-3 0  9999", "line2": "2 41790  98.1469  37.7090 0056007 145.8081 214.6757 14.78907408 73191"}}, "geometry": {"type": "Point", "coordinates": [-126.58147047058708, 60.821252416277915]}}, {"type": "Feature", "properties": {"norad_id": 41875, "name": "GOKTURK 1A", "group": "resource", "lat": 57.594118267844046, "lon": 67.40938822677695, "alt_km": 678.0308284805769, "timestamp": "2025-12-07T22:37:42.740342+00:00", "meta": {"OBJECT_NAME": "GOKTURK 1A", "OBJECT_ID": "2016-073A", "EPOCH": "2025-12-07T05:39:30.614400", "MEAN_MOTION": 14.62769909, "ECCENTRICITY": 0.00012417, "INCLINATION": 98.1437, "RA_OF_ASC_NODE": 233.6745, "ARG_OF_PERICENTER": 82.8677, "MEAN_ANOMALY": 277.2665, "EPHEMERIS_TYPE": 0, "CLASSIFICATION_TYPE": "U", "NORAD_CAT_ID": 41875, "ELEMENT_SET_NO": 999, "REV_AT_EPOCH": 48076, "BSTAR": 0.00021110313, "MEAN_MOTION_DOT": 1.03e-05, "MEAN_MOTION_DDOT": 0}, "tle": {"line1": "1 41875U 16073A   25341.23577100  .00001030  00000+0  21110-3 0  9993", "line2": "2 41875  98.1437 233.6745 0001241  82.8677 277.2665 14.62769909480768"}}, "geometry": {"type": "Point", "coordinates": [67.40938822677695, 57.594118267844046]}}, {"type": "Feature", "properties": {"norad_id": 41877, "name": "RESOURCESAT-2A", "group": "resource", "lat": 19.50201210407456, "lon": -125.03699250731691, "alt_km": 820.4210186630371, "timestamp": "2025-12-07T22:37:42.740352+00:00", "meta": {"OBJECT_NAME": "RESOURCESAT-2A", "OBJECT_ID": "2016-074A", "EPOCH": "2025-12-07T06:40:29.180064", "MEAN_MOTION": 14.21596065, "ECCENTRICITY": 0.00011246, "INCLINATION": 98.7765, "RA_OF_ASC_NODE": 51.1658, "ARG_OF_PERICENTER": 280.5589, "MEAN_ANOMALY": 79.5461, "EPHEMERIS_TYPE": 0, "CLASSIFICATION_TYPE": "U", "NORAD_CAT_ID": 41877, "ELEMENT_SET_NO": 999, "REV_AT_EPOCH": 46703, "BSTAR": 0.00017750887, "MEAN_MOTION_DOT": 3.45e-06, "MEAN_MOTION_DDOT": 0}, "tle": {"line1": "1 41877U 16074A   25341.27811551  .00000345  00000+0  17751-3 0  9995", "line2": "2 41877  98.7765  51.1658 0001124 280.5589  79.5461 14.21596065467033"}}, "geometry": {"type": "Point", "coordinates": [-125.03699250731691, 19.50201210407456]}}, {"type": "Feature", "properties": {"norad_id": 41948, "name": "CARTOSAT-2D", "group": "resource", "lat": -74.53031929732741, "lon": 67.68677468894018, "alt_km": 516.4193271892009, "timestamp": "2025-12-07T22:37:42.740363+00:00", "meta": {"OBJECT_NAME": "CARTOSAT-2D", "OBJECT_ID": "2017-008A", "EPOCH": "2025-12-07T05:34:32.745216", "MEAN_MOTION": 15.19176107, "ECCENTRICITY": 0.00041858, "INCLINATION": 97.4394, "RA_OF_ASC_NODE": 38.8136, "ARG_OF_PERICENTER": 180.1803, "MEAN_ANOMALY": 179.9431, "EPHEMERIS_TYPE": 0, "CLASSIFICATION_TYPE": "U", "NORAD_CAT_ID": 41948, "ELEMENT_SET_NO": 999, "REV_AT_EPOCH": 48843, "BSTAR": 0.00039211583, "MEAN_MOTION_DOT": 8.184e-05, "MEAN_MOTION_DDOT": 0}, "tle": {"line1": "1 41948U 17008A   25341.23232344  .00008184  00000+0  39212-3 0  9990", "line2": "2 41948  97.4394  38.8136 0004185 180.1803 179.9431 15.19176107488431"}}, "geometry": {"type": "Point", "coordinates": [67.68677468894018, -74.53031929732741]}}, {"type": "Feature", "properties": {"norad_id": 42063, "name": "SENTINEL-2B", "group": "resource", "lat": -29.87501898272603, "lon": 59.426937512203885, "alt_km": 795.3860972002904, "timestamp": "2025-12-07T22:37:42.740373+00:00", "meta": {"OBJECT_NAME": "SENTINEL-2B", "OBJECT_ID": "2017-013A", "EPOCH": "2025-12-07T05:59:10.846176", "MEAN_MOTION": 14.30812808, "ECCENTRICITY": 0.00011256, "INCLINATION": 98.5724, "RA_OF_ASC_NODE": 53.7724, "ARG_OF_PERICENTER": 97.7742, "MEAN_ANOMALY": 262.3568, "EPHEMERIS_TYPE": 0, "CLASSIFICATION_TYPE": "U", "NORAD_CAT_ID": 42063, "ELEMENT_SET_NO": 999, "REV_AT_EPOCH": 45719, "BSTAR": 0.00014010649, "MEAN_MOTION_DOT": 3.24e-06, "MEAN_MOTION_DDOT": 0}, "tle": {"line1": "1 42063U 17013A   25341.24943109  .00000324  00000+0  14011-3 0  9992", "line2": "2 42063  98.5724  53.7724 0001125  97.7742 262.3568 14.30812808457198"}}, "geometry": {"type": "Point", "coordinates": [59.426937512203885, -29.87501898272603]}}, {"type": "Feature", "properties": {"norad_id": 42767, "name": "CARTOSAT-2E", "group": "resource", "lat": -13.871942584677754, "lon": -142.26126218317006, "alt_km": 512.2075363878557, "timestamp": "2025-12-07T22:37:42.740384+00:00", "meta": {"OBJECT_NAME": "CARTOSAT-2E", "OBJECT_ID": "2017-036C", "EPOCH": "2025-12-07T05:58:12.654048", "MEAN_MOTION": 15.192393, "ECCENTRICITY": 0.00023716, "INCLINATION": 97.456, "RA_OF_ASC_NODE": 38.907, "ARG_OF_PERICENTER": 265.0388, "MEAN_ANOMALY": 95.0576, "EPHEMERIS_TYPE": 0, "CLASSIFICATION_TYPE": "U", "NORAD_CAT_ID": 42767, "ELEMENT_SET_NO": 999, "REV_AT_EPOCH": 46900, "BSTAR": 0.00041239266, "MEAN_MOTION_DOT": 8.625e-05, "MEAN_MOTION_DDOT": 0}, "tle": {"line1": "1 42767U 17036C   25341.24875757  .00008625  00000+0  41239-3 0  9995", "line2": "2 42767  97.4560  38.9070 0002371 265.0388  95.0576 15.19239300469005"}}, "geometry": {"type": "Point", "coordinates": [-142.26126218317006, -13.871942584677754]}}, {"type": "Feature", "properties": {"norad_id": 42920, "name": "FORMOSAT-5", "group": "resource", "lat": -15.9583568780202, "lon": 58.73345758177713, "alt_km": 721.0864765598535, "timestamp": "2025-12-07T22:37:42.740397+00:00", "meta": {"OBJECT_NAME": "FORMOSAT-5", "OBJECT_ID": "2017-049A", "EPOCH": "2025-12-07T06:09:09.230976", "MEAN_MOTION": 14.51000429, "ECCENTRICITY": 0.00101122, "INCLINATION": 98.2458, "RA_OF_ASC_NODE": 55.684, "ARG_OF_PERICENTER": 314.0369, "MEAN_ANOMALY": 45.9993, "EPHEMERIS_TYPE": 0, "CLASSIFICATION_TYPE": "U", "NORAD_CAT_ID": 42920, "ELEMENT_SET_NO": 999, "REV_AT_EPOCH": 43884, "BSTAR": 0.00014147899, "MEAN_MOTION_DOT": 5.16e-06, "MEAN_MOTION_DDOT": 0}, "tle": {"line1": "1 42920U 17049A   25341.25635684  .00000516  00000+0  14148-3 0  9994", "line2": "2 42920  98.2458  55.6840 0010112 314.0369  45.9993 14.51000429438846"}}, "geometry": {"type": "Point", "coordinates": [58.73345758177713, -15.9583568780202]}}]}